SHIYAN-1 (SY-1)         
1 28220U 04012A   26068.73650539  .00016393  00000+0  54854-3 0  9991
2 28220  97.8764 140.5238 0005873  23.6952 336.4557 15.31043463195862
STARLINK-35893          
1 66565U 25268J   26068.17653314  .00027668  00000+0  10110-2 0  9996
2 66565  43.0028 349.7575 0001774 257.0329 103.0325 15.27585270 17884
